NORAD_CAT_ID,OBJECT_NAME,OBJECT_TYPE,EPOCH,MEAN_MOTION,ECCENTRICITY,INCLINATION,RA_OF_ASC_NODE,ARG_OF_PERICENTER,MEAN_ANOMALY,BSTAR,MEAN_MOTION_DOT,MEAN_MOTION_DDOT,TLE_LINE0,TLE_LINE1,TLE_LINE2,SEMIMAJOR_AXIS,PERIOD,APOGEE,PERIGEE,DECAYED
54098.0,STARLINK-5217,PAYLOAD,2024-01-16 21:26:49,15.08828124,0.0001214,53.2147,247.8656,113.1327,246.9793,0.00023773,3.496e-05,0.0,0 STARLINK-5217,1 54098U 22136AZ  24016.89363295  .00003496  00000-0  23773-3 0  9995,2 54098  53.2147 247.8656 0001214 113.1327 246.9793 15.08828124 68816,6917.917,95.438,540.622,538.942,0.0
54098.0,STARLINK-5217,PAYLOAD,2024-01-17 00:37:36,15.08835369,0.0001259,53.2143,247.2698,114.9124,245.1999,0.0010542,0.00016527,0.0,0 STARLINK-5217,1 54098U 22136AZ  24017.02611614  .00016527  00000-0  10542-2 0  9990,2 54098  53.2143 247.2698 0001259 114.9124 245.1999 15.08835369 69308,6917.895,95.438,540.631,538.889,0.0
54098.0,STARLINK-5217,PAYLOAD,2024-01-17 21:17:36,15.08871938,0.0001231,53.2146,243.4036,104.99,255.1229,0.0012108,0.00019051,0.0,0 STARLINK-5217,1 54098U 22136AZ  24017.88722692  .00019051  00000-0  12108-2 0  9998,2 54098  53.2146 243.4036 0001231 104.9900 255.1229 15.08871938 68966,6917.783,95.436,540.499,538.796,0.0
54098.0,STARLINK-5217,PAYLOAD,2024-01-18 00:28:22,15.08877273,0.0001222,53.2146,242.8089,105.346,254.7668,0.001228,0.0001933,0.0,0 STARLINK-5217,1 54098U 22136AZ  24018.01970376  .00019330  00000-0  12280-2 0  9999,2 54098  53.2146 242.8089 0001222 105.3460 254.7668 15.08877273 69458,6917.766,95.435,540.477,538.786,0.0
54098.0,STARLINK-5217,PAYLOAD,2024-01-18 14:46:50,15.08864233,0.0001426,53.2152,240.1318,100.0081,260.1072,0.00061101,9.456e-05,0.0,0 STARLINK-5217,1 54098U 22136AZ  24018.61586151  .00009456  00000-0  61101-3 0  9994,2 54098  53.2152 240.1318 0001426 100.0081 260.1072 15.08864233 69078,6917.806,95.436,540.658,538.685,0.0
54098.0,STARLINK-5217,PAYLOAD,2024-01-18 19:32:59,15.08862191,8.82e-05,53.2156,239.2379,95.2957,264.8136,0.00059334,9.173e-05,0.0,0 STARLINK-5217,1 54098U 22136AZ  24018.81457980  .00009173  00000-0  59334-3 0  9994,2 54098  53.2156 239.2379 0000882  95.2957 264.8136 15.08862191 69578,6917.813,95.436,540.288,539.067,0.0
54098.0,STARLINK-5217,PAYLOAD,2024-01-18 21:08:22,15.08864093,0.0001178,53.2155,238.9395,114.4735,245.638,0.00063041,9.766e-05,0.0,0 STARLINK-5217,1 54098U 22136AZ  24018.88081817  .00009766  00000-0  63041-3 0  9991,2 54098  53.2155 238.9395 0001178 114.4735 245.6380 15.08864093 69119,6917.807,95.436,540.487,538.857,0.0
54098.0,STARLINK-5217,PAYLOAD,2024-01-19 14:37:37,15.08844741,0.000146,53.2153,235.6668,97.6311,262.4847,0.00045215,6.916e-05,0.0,0 STARLINK-5217,1 54098U 22136AZ  24019.60946105  .00006916  00000-0  45215-3 0  9999,2 54098  53.2153 235.6668 0001460  97.6311 262.4847 15.08844741 69225,6917.866,95.437,540.741,538.721,0.0
54098.0,STARLINK-5217,PAYLOAD,2024-01-19 19:23:46,15.08848091,0.0001243,53.2144,234.7774,106.4527,253.6602,-2.8975e-05,-7.49e-06,0.0,0 STARLINK-5217,1 54098U 22136AZ  24019.80817833 -.00000749  00000-0 -28975-4 0  9991,2 54098  53.2144 234.7774 0001243 106.4527 253.6602 15.08848091 69728,6917.856,95.437,540.581,538.861,0.0
54098.0,STARLINK-5217,PAYLOAD,2024-01-19 20:59:09,15.0884758,0.0001228,53.2144,234.4802,104.5897,255.5231,-2.5613e-05,-6.96e-06,0.0,0 STARLINK-5217,1 54098U 22136AZ  24019.87441821 -.00000696  00000-0 -25613-4 0  9995,2 54098  53.2144 234.4802 0001228 104.5897 255.5231 15.08847580 69269,6917.857,95.437,540.572,538.873,0.0
54098.0,STARLINK-5217,PAYLOAD,2024-01-20 14:28:24,15.08839074,0.0001254,53.2141,231.2096,97.6472,262.4663,1.625e-05,-2.9e-07,0.0,0 STARLINK-5217,1 54098U 22136AZ  24020.60306287 -.00000029  00000-0  16250-4 0  9990,2 54098  53.2141 231.2096 0001254  97.6472 262.4663 15.08839074 69373,6917.883,95.438,540.616,538.881,0.0
54098.0,STARLINK-5217,PAYLOAD,2024-01-20 19:14:34,15.08838358,0.0001234,53.2148,230.3174,100.7784,259.3347,1.6466e-05,-2.6e-07,0.0,0 STARLINK-5217,1 54098U 22136AZ  24020.80178536 -.00000026  00000-0  16466-4 0  9992,2 54098  53.2148 230.3174 0001234 100.7784 259.3347 15.08838358 69870,6917.885,95.438,540.604,538.897,0.0
54098.0,STARLINK-5217,PAYLOAD,2024-01-20 20:49:57,15.08838134,0.0001235,53.2148,230.02,100.6862,259.4269,8.0535e-06,-1.6e-06,0.0,0 STARLINK-5217,1 54098U 22136AZ  24020.86802523 -.00000160  00000-0  80535-5 0  9996,2 54098  53.2148 230.0200 0001235 100.6862 259.4269 15.08838134 69410,6917.886,95.438,540.605,538.897,0.0
54098.0,STARLINK-5217,PAYLOAD,2024-01-21 22:16:07,15.08842071,0.0001176,53.2147,225.2633,92.9141,267.1986,9.5189e-05,1.227e-05,0.0,0 STARLINK-5217,1 54098U 22136AZ  24021.92786187  .00001227  00000-0  95189-4 0  9995,2 54098  53.2147 225.2633 0001176  92.9141 267.1986 15.08842071 69576,6917.874,95.437,540.553,538.926,0.0
54098.0,STARLINK-5217,PAYLOAD,2024-01-22 20:31:31,15.08840485,0.0001249,53.2158,221.1018,94.4106,265.7029,0.00010731,1.42e-05,0.0,0 STARLINK-5217,1 54098U 22136AZ  24022.85522395  .00001420  00000-0  10731-3 0  9991,2 54098  53.2158 221.1018 0001249  94.4106 265.7029 15.08840485 69714,6917.879,95.438,540.608,538.88,0.0
54098.0,STARLINK-5217,PAYLOAD,2024-01-23 02:53:04,15.08837745,0.0001227,53.2144,219.9112,88.1619,271.9514,7.5437e-05,9.13e-06,0.0,0 STARLINK-5217,1 54098U 22136AZ  24023.12018655  .00000913  00000-0  75437-4 0  9992,2 54098  53.2144 219.9112 0001227  88.1619 271.9514 15.08837745 70225,6917.887,95.438,540.601,538.903,0.0
54098.0,STARLINK-5217,PAYLOAD,2024-01-23 04:28:27,15.08839951,0.0001232,53.2143,219.6126,90.2755,269.8379,9.0403e-05,1.151e-05,0.0,0 STARLINK-5217,1 54098U 22136AZ  24023.18642578  .00001151  00000-0  90403-4 0  9990,2 54098  53.2143 219.6126 0001232  90.2755 269.8379 15.08839951 69760,6917.881,95.438,540.598,538.893,0.0
54098.0,STARLINK-5217,PAYLOAD,2024-01-23 15:36:07,15.0886601,0.0001512,53.2149,217.5308,98.9097,261.2066,0.00025421,3.763e-05,0.0,0 STARLINK-5217,1 54098U 22136AZ  24023.65008437  .00003763  00000-0  25421-3 0  9990,2 54098  53.2149 217.5308 0001512  98.9097 261.2066 15.08866010 70307,6917.801,95.436,540.712,538.62,0.0
54098.0,STARLINK-5217,PAYLOAD,2024-01-23 21:57:39,15.08869431,0.0001371,53.2153,216.3417,90.2561,269.8588,0.00027,4.015e-05,0.0,0 STARLINK-5217,1 54098U 22136AZ  24023.91503733  .00004015  00000-0  27000-3 0  9994,2 54098  53.2153 216.3417 0001371  90.2561 269.8588 15.08869431 69877,6917.79,95.436,540.604,538.707,0.0
54098.0,STARLINK-5217,PAYLOAD,2024-01-24 02:43:51,15.08831177,0.0001418,53.2154,215.449,84.1032,276.0121,-5.6911e-05,-1.193e-05,0.0,0 STARLINK-5217,1 54098U 22136AZ  24024.11378628 -.00001193  00000-0 -56911-4 0  9990,2 54098  53.2154 215.4490 0001418  84.1032 276.0121 15.08831177 70372,6917.907,95.438,540.753,538.791,0.0
54098.0,STARLINK-5217,PAYLOAD,2024-01-24 13:51:33,15.08834951,0.0001398,53.2149,213.3676,88.2195,271.8957,-2.3283e-05,-6.58e-06,0.0,0 STARLINK-5217,1 54098U 22136AZ  24024.57746585 -.00000658  00000-0 -23283-4 0  9992,2 54098  53.2149 213.3676 0001398  88.2195 271.8957 15.08834951 69978,6917.896,95.438,540.728,538.794,0.0
54098.0,STARLINK-5217,PAYLOAD,2024-01-24 20:13:05,15.08835097,0.0001427,53.2141,212.1783,85.2806,274.8349,-9.5066e-05,-1.8e-05,0.0,0 STARLINK-5217,1 54098U 22136AZ  24024.84242011 -.00001800  00000-0 -95066-4 0  9995,2 54098  53.2141 212.1783 0001427  85.2806 274.8349 15.08835097 70483,6917.895,95.438,540.748,538.773,0.0
54098.0,STARLINK-5217,PAYLOAD,2024-01-24 21:48:28,15.08835261,0.0001427,53.2142,211.881,84.2828,275.8326,-8.8396e-05,-1.694e-05,0.0,0 STARLINK-5217,1 54098U 22136AZ  24024.90866014 -.00001694  00000-0 -88396-4 0  9996,2 54098  53.2142 211.8810 0001427  84.2828 275.8326 15.08835261 70023,6917.895,95.438,540.747,538.773,0.0
54098.0,STARLINK-5217,PAYLOAD,2024-01-24 23:23:51,15.08835838,0.0001418,53.2141,211.5836,84.4196,275.6958,-7.2159e-05,-1.436e-05,0.0,0 STARLINK-5217,1 54098U 22136AZ  24024.97490015 -.00001436  00000-0 -72159-4 0  9991,2 54098  53.2141 211.5836 0001418  84.4196 275.6958 15.08835838 70037,6917.893,95.438,540.739,538.777,0.0
54098.0,STARLINK-5217,PAYLOAD,2024-01-25 18:28:28,15.0884235,0.0001486,53.2138,208.0155,79.6613,280.4547,0.00010097,1.319e-05,0.0,0 STARLINK-5217,1 54098U 22136AZ  24025.76978003  .00001319  00000-0  10097-3 0  9997,2 54098  53.2138 208.0155 0001486  79.6613 280.4547 15.08842350 70151,6917.873,95.437,540.766,538.71,0.0
54098.0,STARLINK-5217,PAYLOAD,2024-01-27 11:48:30,15.08844343,0.0001783,53.2157,200.2809,77.9236,282.1956,0.00020227,2.933e-05,0.0,0 STARLINK-5217,1 54098U 22136AZ  24027.49202396  .00002933  00000-0  20227-3 0  9993,2 54098  53.2157 200.2809 0001783  77.9236 282.1956 15.08844343 70881,6917.867,95.437,540.966,538.499,0.0
54098.0,STARLINK-5217,PAYLOAD,2024-01-27 14:59:17,15.08840158,0.0001612,53.2148,199.687,71.8995,288.2172,0.00010583,1.397e-05,0.0,0 STARLINK-5217,1 54098U 22136AZ  24027.62450534  .00001397  00000-0  10583-3 0  9994,2 54098  53.2148 199.6870 0001612  71.8995 288.2172 15.08840158 70434,6917.88,95.438,540.86,538.63,0.0
54098.0,STARLINK-5217,PAYLOAD,2024-01-27 18:10:03,15.08839407,0.0001535,53.2152,199.0922,76.041,284.0753,8.4826e-05,1.062e-05,0.0,0 STARLINK-5217,1 54098U 22136AZ  24027.75698606  .00001062  00000-0  84826-4 0  9993,2 54098  53.2152 199.0922 0001535  76.0410 284.0753 15.08839407 70450,6917.882,95.438,540.809,538.685,0.0
54098.0,STARLINK-5217,PAYLOAD,2024-01-28 14:50:04,15.08840592,0.0001592,53.2162,195.229,91.8536,268.2639,8.0278e-05,9.9e-06,0.0,0 STARLINK-5217,1 54098U 22136AZ  24028.61810515  .00000990  00000-0  80278-4 0  9990,2 54098  53.2162 195.2290 0001592  91.8536 268.2639 15.08840592 70582,6917.879,95.438,540.845,538.642,0.0
54098.0,STARLINK-5217,PAYLOAD,2024-01-28 18:00:50,15.08842166,0.0001567,53.217,194.6348,91.8216,268.2955,8.9403e-05,1.135e-05,0.0,0 STARLINK-5217,1 54098U 22136AZ  24028.75058479  .00001135  00000-0  89403-4 0  9999,2 54098  53.2170 194.6348 0001567  91.8216 268.2955 15.08842166 70608,6917.874,95.437,540.823,538.655,0.0
